{"type": "FeatureCollection", "features": [ {"type": "Feature", "properties": {"norad_id": 33841, "name": "COSMOS 2251 DEB", "group": "cosmos-2251-debris", "lat": 54.469216079937844, "lon": 85.53613714996438, "alt_km": 765.3255455522685, "timestamp": "2025-12-06T16:45:43.114397+00:00", "meta": {"OBJECT_NAME": "COSMOS 2251 DEB", "OBJECT_ID": "1993-036CJ", "EPOCH": "2025-12-06T02:54:38.623968", "MEAN_MOTION": 14.3784432, "ECCENTRICITY": 0.00202254, "INCLINATION": 74.0374, "RA_OF_ASC_NODE": 290.2275, "ARG_OF_PERICENTER": 12.0597, "MEAN_ANOMALY": 3.6482, "EPHEMERIS_TYPE": 0, "CLASSIFICATION_TYPE": "U", "NORAD_CAT_ID": 33841, "ELEMENT_SET_NO": 999, "REV_AT_EPOCH": 88019, "BSTAR": 0.00044574322, "MEAN_MOTION_DOT": 1.321e-05, "MEAN_MOTION_DDOT": 0}, "tle": {"line1": "1 33841U 93036CJ  25340.12128037  .00001321  00000+0  44574-3 0  9991", "line2": "2 33841  74.0374 290.2275 0020225  12.0597   3.6482 14.37844320880193"}}, "geometry": {"type": "Point", "coordinates": [85.53613714996438, 54.469216079937844]}}, {"type": "Feature", "properties": {"norad_id": 33842, "name": "COSMOS 2251 DEB", "group": "cosmos-2251-debris", "lat": -73.98906802259296, "lon": 144.7255361363568, "alt_km": 744.0806536687933, "timestamp": "2025-12-06T16:45:43.114407+00:00", "meta": {"OBJECT_NAME": "COSMOS 2251 DEB", "OBJECT_ID": "1993-036CK", "EPOCH": "2025-12-06T02:11:32.174304", "MEAN_MOTION": 14.42675477, "ECCENTRICITY": 0.00470895, "INCLINATION": 74.0334, "RA_OF_ASC_NODE": 231.9914, "ARG_OF_PERICENTER": 340.644, "MEAN_ANOMALY": 19.2926, "EPHEMERIS_TYPE": 0, "CLASSIFICATION_TYPE": "U", "NORAD_CAT_ID": 33842, "ELEMENT_SET_NO": 999, "REV_AT_EPOCH": 88241, "BSTAR": 0.00057284232, "MEAN_MOTION_DOT": 1.904e-05, "MEAN_MOTION_DDOT": 0}, "tle": {"line1": "1 33842U 93036CK  25340.09134461  .00001904  00000+0  57284-3 0  9995", "line2": "2 33842  74.0334 231.9914 0047089 340.6440  19.2926 14.42675477882410"}}, "geometry": {"type": "Point", "coordinates": [144.7255361363568, -73.98906802259296]}}, {"type": "Feature", "properties": {"norad_id": 33844, "name": "COSMOS 2251 DEB", "group": "cosmos-2251-debris", "lat": 35.18762502827209, "lon": 75.42783389191723, "alt_km": 755.2757746341949, "timestamp": "2025-12-06T16:45:43.114418+00:00", "meta": {"OBJECT_NAME": "COSMOS 2251 DEB", "OBJECT_ID": "1993-036CM", "EPOCH": "2025-12-06T04:59:38.386752", "MEAN_MOTION": 14.33693963, "ECCENTRICITY": 0.0047116, "INCLINATION": 74.0673, "RA_OF_ASC_NODE": 64.7027, "ARG_OF_PERICENTER": 88.7363, "MEAN_ANOMALY": 298.8523, "EPHEMERIS_TYPE": 0, "CLASSIFICATION_TYPE": "U", "NORAD_CAT_ID": 33844, "ELEMENT_SET_NO": 999, "REV_AT_EPOCH": 87632, "BSTAR": 0.00069780237, "MEAN_MOTION_DOT": 1.936e-05, "MEAN_MOTION_DDOT": 0}, "tle": {"line1": "1 33844U 93036CM  25340.20808318  .00001936  00000+0  69780-3 0  9998", "line2": "2 33844  74.0673  64.7027 0047116  88.7363 298.8523 14.33693963876321"}}, "geometry": {"type": "Point", "coordinates": [75.42783389191723, 35.18762502827209]}}, {"type": "Feature", "properties": {"norad_id": 33848, "name": "COSMOS 2251 DEB", "group": "cosmos-2251-debris", "lat": -8.009462871278043, "lon": 6.574870245414393, "alt_km": 741.2710682562229, "timestamp": "2025-12-06T16:45:43.114428+00:00", "meta": {"OBJECT_NAME": "COSMOS 2251 DEB", "OBJECT_ID": "1993-036CR", "EPOCH": "2025-12-06T01:58:34.260672", "MEAN_MOTION": 14.43994611, "ECCENTRICITY": 0.00409168, "INCLINATION": 74.0318, "RA_OF_ASC_NODE": 10.0295, "ARG_OF_PERICENTER": 68.1099, "MEAN_ANOMALY": 322.8243, "EPHEMERIS_TYPE": 0, "CLASSIFICATION_TYPE": "U", "NORAD_CAT_ID": 33848, "ELEMENT_SET_NO": 999, "REV_AT_EPOCH": 87735, "BSTAR": 0.0015650003, "MEAN_MOTION_DOT": 5.381e-05, "MEAN_MOTION_DDOT": 0}, "tle": {"line1": "1 33848U 93036CR  25340.08234098  .00005381  00000+0  15650-2 0  9990", "line2": "2 33848  74.0318  10.0295 0040916  68.1099 322.8243 14.43994611877357"}}, "geometry": {"type": "Point", "coordinates": [6.574870245414393, -8.009462871278043]}}, {"type": "Feature", "properties": {"norad_id": 33892, "name": "COSMOS 2251 DEB", "group": "cosmos-2251-debris", "lat": 5.1834753274349215, "lon": 114.58965999536578, "alt_km": 878.1901062899242, "timestamp": "2025-12-06T16:45:43.114438+00:00", "meta": {"OBJECT_NAME": "COSMOS 2251 DEB", "OBJECT_ID": "1993-036CV", "EPOCH": "2025-12-05T10:38:25.461600", "MEAN_MOTION": 14.23289044, "ECCENTRICITY": 0.01134683, "INCLINATION": 73.8025, "RA_OF_ASC_NODE": 115.3673, "ARG_OF_PERICENTER": 147.9795, "MEAN_ANOMALY": 270.1039, "EPHEMERIS_TYPE": 0, "CLASSIFICATION_TYPE": "U", "NORAD_CAT_ID": 33892, "ELEMENT_SET_NO": 999, "REV_AT_EPOCH": 86851, "BSTAR": 0.001921511, "MEAN_MOTION_DOT": 4.626e-05, "MEAN_MOTION_DDOT": 0}, "tle": {"line1": "1 33892U 93036CV  25339.44335025  .00004626  00000+0  19215-2 0  9991", "line2": "2 33892  73.8025 115.3673 0113468 147.9795 270.1039 14.23289044868510"}}, "geometry": {"type": "Point", "coordinates": [114.58965999536578, 5.1834753274349215]}}, {"type": "Feature", "properties": {"norad_id": 33894, "name": "COSMOS 2251 DEB", "group": "cosmos-2251-debris", "lat": -18.86302066796159, "lon": -7.282323952182107, "alt_km": 958.417144318706, "timestamp": "2025-12-06T16:45:43.114448+00:00", "meta": {"OBJECT_NAME": "COSMOS 2251 DEB", "OBJECT_ID": "1993-036CX", "EPOCH": "2025-12-05T11:47:03.672672", "MEAN_MOTION": 13.21268156, "ECCENTRICITY": 0.0579518, "INCLINATION": 73.7667, "RA_OF_ASC_NODE": 0.2971, "ARG_OF_PERICENTER": 280.6409, "MEAN_ANOMALY": 72.9952, "EPHEMERIS_TYPE": 0, "CLASSIFICATION_TYPE": "U", "NORAD_CAT_ID": 33894, "ELEMENT_SET_NO": 999, "REV_AT_EPOCH": 80612, "BSTAR": 0.0032430232, "MEAN_MOTION_DOT": 3.207e-05, "MEAN_MOTION_DDOT": 0}, "tle": {"line1": "1 33894U 93036CX  25339.49101473  .00003207  00000+0  32430-2 0  9994", "line2": "2 33894  73.7667   0.2971 0579518 280.6409  72.9952 13.21268156806124"}}, "geometry": {"type": "Point", "coordinates": [-7.282323952182107, -18.86302066796159]}}, {"type": "Feature", "properties": {"norad_id": 33896, "name": "COSMOS 2251 DEB", "group": "cosmos-2251-debris", "lat": 10.845026386284145, "lon": -15.549093879199631, "alt_km": 920.4106156369362, "timestamp": "2025-12-06T16:45:43.114459+00:00", "meta": {"OBJECT_NAME": "COSMOS 2251 DEB", "OBJECT_ID": "1993-036CZ", "EPOCH": "2025-12-06T06:39:28.771776", "MEAN_MOTION": 14.19014831, "ECCENTRICITY": 0.01261545, "INCLINATION": 73.7658, "RA_OF_ASC_NODE": 168.4147, "ARG_OF_PERICENTER": 345.1412, "MEAN_ANOMALY": 193.7343, "EPHEMERIS_TYPE": 0, "CLASSIFICATION_TYPE": "U", "NORAD_CAT_ID": 33896, "ELEMENT_SET_NO": 999, "REV_AT_EPOCH": 86648, "BSTAR": 0.00089152343, "MEAN_MOTION_DOT": 1.987e-05, "MEAN_MOTION_DDOT": 0}, "tle": {"line1": "1 33896U 93036CZ  25340.27741634  .00001987  00000+0  89152-3 0  9990", "line2": "2 33896  73.7658 168.4147 0126154 345.1412 193.7343 14.19014831866481"}}, "geometry": {"type": "Point", "coordinates": [-15.549093879199631, 10.845026386284145]}}, {"type": "Feature", "properties": {"norad_id": 33899, "name": "COSMOS 2251 DEB", "group": "cosmos-2251-debris", "lat": -6.481285752974767, "lon": 95.40222007081353, "alt_km": 732.8477199308654, "timestamp": "2025-12-06T16:45:43.114469+00:00", "meta": {"OBJECT_NAME": "COSMOS 2251 DEB", "OBJECT_ID": "1993-036DC", "EPOCH": "2025-12-05T18:20:55.272768", "MEAN_MOTION": 14.61074857, "ECCENTRICITY": 0.00574599, "INCLINATION": 74.0539, "RA_OF_ASC_NODE": 99.0461, "ARG_OF_PERICENTER": 163.7133, "MEAN_ANOMALY": 319.6622, "EPHEMERIS_TYPE": 0, "CLASSIFICATION_TYPE": "U", "NORAD_CAT_ID": 33899, "ELEMENT_SET_NO": 999, "REV_AT_EPOCH": 88737, "BSTAR": 0.0021203983, "MEAN_MOTION_DOT": 0.00010651, "MEAN_MOTION_DDOT": 0}, "tle": {"line1": "1 33899U 93036DC  25339.76452862  .00010651  00000+0  21204-2 0  9998", "line2": "2 33899  74.0539  99.0461 0057459 163.7133 319.6622 14.61074857887370"}}, "geometry": {"type": "Point", "coordinates": [95.40222007081353, -6.481285752974767]}}, {"type": "Feature", "properties": {"norad_id": 33900, "name": "COSMOS 2251 DEB", "group": "cosmos-2251-debris", "lat": 73.99923250142358, "lon": 99.26787716340618, "alt_km": 682.8327540009614, "timestamp": "2025-12-06T16:45:43.114478+00:00", "meta": {"OBJECT_NAME": "COSMOS 2251 DEB", "OBJECT_ID": "1993-036DD", "EPOCH": "2025-12-06T08:11:25.479168", "MEAN_MOTION": 14.58312655, "ECCENTRICITY": 0.0047186, "INCLINATION": 74.0195, "RA_OF_ASC_NODE": 12.0543, "ARG_OF_PERICENTER": 165.951, "MEAN_ANOMALY": 209.7571, "EPHEMERIS_TYPE": 0, "CLASSIFICATION_TYPE": "U", "NORAD_CAT_ID": 33900, "ELEMENT_SET_NO": 999, "REV_AT_EPOCH": 88943, "BSTAR": 0.00076044629, "MEAN_MOTION_DOT": 3.543e-05, "MEAN_MOTION_DDOT": 0}, "tle": {"line1": "1 33900U 93036DD  25340.34126712  .00003543  00000+0  76045-3 0  9995", "line2": "2 33900  74.0195  12.0543 0047186 165.9510 209.7571 14.58312655889434"}}, "geometry": {"type": "Point", "coordinates": [99.26787716340618, 73.99923250142358]}}, {"type": "Feature", "properties": {"norad_id": 33901, "name": "COSMOS 2251 DEB", "group": "cosmos-2251-debris", "lat": -73.7532486001086, "lon": -25.97964061724787, "alt_km": 522.6298517019995, "timestamp": "2025-12-06T16:45:43.114489+00:00", "meta": {"OBJECT_NAME": "COSMOS 2251 DEB", "OBJECT_ID": "1993-036DE", "EPOCH": "2025-12-05T22:08:13.007328", "MEAN_MOTION": 15.14716493, "ECCENTRICITY": 0.00341432, "INCLINATION": 73.7728, "RA_OF_ASC_NODE": 63.7132, "ARG_OF_PERICENTER": 196.1486, "MEAN_ANOMALY": 163.8622, "EPHEMERIS_TYPE": 0, "CLASSIFICATION_TYPE": "U", "NORAD_CAT_ID": 33901, "ELEMENT_SET_NO": 999, "REV_AT_EPOCH": 89410, "BSTAR": 0.0049307339, "MEAN_MOTION_DOT": 0.0009384, "MEAN_MOTION_DDOT": 0}, "tle": {"line1": "1 33901U 93036DE  25339.92237277  .00093840  00000+0  49307-2 0  9996", "line2": "2 33901  73.7728  63.7132 0034143 196.1486 163.8622 15.14716493894105"}}, "geometry": {"type": "Point", "coordinates": [-25.97964061724787, -73.7532486001086]}}]}